{
  "norad_id": 59838,
  "name": "STARLINK-31855",
  "history": [
    {
      "epoch": "2026-03-28T14:39:06.285024Z",
      "apogee_km": 483.8655865890869,
      "perigee_km": 482.0816978221137,
      "latitude_deg": -6.3853149343650134e-06,
      "longitude_deg": 121.42314395767062,
      "height_km": 482.62763454226695,
      "semi_major_axis_km": 6861.1106422056,
      "eccentricity": 0.00013,
      "inclination_deg": 43.0036,
      "raan_deg": 167.2278,
      "arg_perigee_deg": 277.9285,
      "mean_anomaly_deg": 82.1419,
      "mean_motion_rev_day": 15.27605199
    },
    {
      "epoch": "2026-03-30T04:18:52.159104Z",
      "apogee_km": 483.37047466487365,
      "perigee_km": 482.7296397937289,
      "latitude_deg": -9.395374699109218e-06,
      "longitude_deg": -93.92605457339613,
      "height_km": 482.8208329949494,
      "semi_major_axis_km": 6861.187057229301,
      "eccentricity": 4.67e-05,
      "inclination_deg": 43.0031,
      "raan_deg": 158.3665,
      "arg_perigee_deg": 270.973,
      "mean_anomaly_deg": 89.1068,
      "mean_motion_rev_day": 15.27579679
    },
    {
      "epoch": "2026-03-30T13:43:48.395424Z",
      "apogee_km": 483.9737547650193,
      "perigee_km": 482.0494770242067,
      "latitude_deg": -3.0424895592684747e-06,
      "longitude_deg": 122.23574883189367,
      "height_km": 482.8180444500304,
      "semi_major_axis_km": 6861.148615894613,
      "eccentricity": 0.00014023,
      "inclination_deg": 43.0035,
      "raan_deg": 156.1493,
      "arg_perigee_deg": 268.2525,
      "mean_anomaly_deg": 91.8166,
      "mean_motion_rev_day": 15.27592517
    },
    {
      "epoch": "2026-03-31T21:06:56.797056Z",
      "apogee_km": 484.2354280043619,
      "perigee_km": 481.79285819741744,
      "latitude_deg": 1.734971739113461e-05,
      "longitude_deg": 2.7787019575227636,
      "height_km": 482.61840469646967,
      "semi_major_axis_km": 6861.151143100889,
      "eccentricity": 0.000178,
      "inclination_deg": 43.0055,
      "raan_deg": 148.7662,
      "arg_perigee_deg": 278.1609,
      "mean_anomaly_deg": 81.9041,
      "mean_motion_rev_day": 15.27591673
    }
  ]
}